NORAD_CAT_ID,OBJECT_NAME,OBJECT_TYPE,EPOCH,MEAN_MOTION,ECCENTRICITY,INCLINATION,RA_OF_ASC_NODE,ARG_OF_PERICENTER,MEAN_ANOMALY,BSTAR,MEAN_MOTION_DOT,MEAN_MOTION_DDOT,TLE_LINE0,TLE_LINE1,TLE_LINE2,SEMIMAJOR_AXIS,PERIOD,APOGEE,PERIGEE,DECAYED
55413.0,STARLINK-5060,PAYLOAD,2023-12-24 08:10:43,14.98332709,0.0002418,70.0009,317.359,242.6587,117.4326,0.00036847,4.306e-05,0.0,0 STARLINK-5060,1 55413U 23014Y   23358.34078471  .00004306  00000-0  36847-3 0  9997,2 55413  70.0009 317.3590 0002418 242.6587 117.4326 14.98332709 50783,6950.185,96.107,573.73,570.369,0.0
55413.0,STARLINK-5060,PAYLOAD,2023-12-24 22:35:56,14.98314518,0.0002264,70.0024,315.8422,240.5798,119.5135,0.00042072,4.928e-05,0.0,0 STARLINK-5060,1 55413U 23014Y   23358.94162902  .00004928  00000-0  42072-3 0  9993,2 55413  70.0024 315.8422 0002264 240.5798 119.5135 14.98314518 50876,6950.241,96.108,573.679,570.532,0.0
55413.0,STARLINK-5060,PAYLOAD,2023-12-25 03:24:21,14.98338349,0.0002706,70.0,315.3387,259.1598,100.9257,-0.0001242,-1.575e-05,0.0,0 STARLINK-5060,1 55413U 23014Y   23359.14191058 -.00001575  00000-0 -12420-3 0  9991,2 55413  70.0000 315.3387 0002706 259.1598 100.9257 14.98338349 49965,6950.167,96.106,573.913,570.151,0.0
55413.0,STARLINK-5060,PAYLOAD,2023-12-25 08:12:44,14.98339233,0.0002541,70.0006,314.8339,251.4699,108.6184,-8.4399e-05,-1.1e-05,0.0,0 STARLINK-5060,1 55413U 23014Y   23359.34218730 -.00001100  00000-0 -84399-4 0  9999,2 55413  70.0006 314.8339 0002541 251.4699 108.6184 14.98339233 50932,6950.164,96.106,573.795,570.263,0.0
55413.0,STARLINK-5060,PAYLOAD,2023-12-25 22:37:57,14.98336626,0.0002541,70.0005,313.319,253.061,107.0271,-9.5436e-05,-1.232e-05,0.0,0 STARLINK-5060,1 55413U 23014Y   23359.94302587 -.00001232  00000-0 -95436-4 0  9999,2 55413  70.0005 313.3190 0002541 253.0610 107.0271 14.98336626 51025,6950.172,96.107,573.803,570.271,0.0
55413.0,STARLINK-5060,PAYLOAD,2023-12-26 03:26:21,14.9834353,0.0002466,70.0004,312.8133,249.6754,110.414,-0.00024082,-2.966e-05,0.0,0 STARLINK-5060,1 55413U 23014Y   23360.14330432 -.00002966  00000-0 -24082-3 0  9996,2 55413  70.0004 312.8133 0002466 249.6754 110.4140 14.98343530 50115,6950.151,96.106,573.73,570.302,0.0
55413.0,STARLINK-5060,PAYLOAD,2023-12-26 06:38:37,14.9834065,0.0002792,69.9995,312.4757,261.9121,98.1722,-7.506e-05,-9.89e-06,0.0,0 STARLINK-5060,1 55413U 23014Y   23360.27682164 -.00000989  00000-0 -75060-4 0  9998,2 55413  69.9995 312.4757 0002792 261.9121  98.1722 14.98340650 51070,6950.16,96.106,573.965,570.084,0.0
55413.0,STARLINK-5060,PAYLOAD,2023-12-26 22:39:58,14.98329006,0.0002618,70.0002,310.7938,269.3242,90.7617,7.0284e-05,7.46e-06,0.0,0 STARLINK-5060,1 55413U 23014Y   23360.94442376  .00000746  00000-0  70284-4 0  9993,2 55413  70.0002 310.7938 0002618 269.3242  90.7617 14.98329006 51171,6950.196,96.107,573.881,570.241,0.0
55413.0,STARLINK-5060,PAYLOAD,2023-12-27 03:28:22,14.98330131,0.0002668,70.0001,310.2882,268.025,92.0603,5.3106e-05,5.41e-06,0.0,0 STARLINK-5060,1 55413U 23014Y   23361.14470326  .00000541  00000-0  53106-4 0  9999,2 55413  70.0001 310.2882 0002668 268.0250  92.0603 14.98330131 50263,6950.192,96.107,573.912,570.203,0.0
55413.0,STARLINK-5060,PAYLOAD,2023-12-27 06:40:38,14.98332698,0.0002608,70.0003,309.9523,268.7061,91.3799,7.4079e-05,7.91e-06,0.0,0 STARLINK-5060,1 55413U 23014Y   23361.27822149  .00000791  00000-0  74079-4 0  9996,2 55413  70.0003 309.9523 0002608 268.7061  91.3799 14.98332698 51228,6950.185,96.107,573.862,570.237,0.0
55413.0,STARLINK-5060,PAYLOAD,2023-12-27 22:41:59,14.98328796,0.0002526,70.0005,308.269,262.4197,97.6675,6.3139e-05,6.6e-06,0.0,0 STARLINK-5060,1 55413U 23014Y   23361.94582346  .00000660  00000-0  63139-4 0  9992,2 55413  70.0005 308.2690 0002526 262.4197  97.6675 14.98328796 51324,6950.197,96.107,573.817,570.306,0.0
55413.0,STARLINK-5060,PAYLOAD,2023-12-28 03:30:23,14.98328351,0.0002615,70.0002,307.7638,263.0211,97.0651,4.8501e-05,4.86e-06,0.0,0 STARLINK-5060,1 55413U 23014Y   23362.14610396  .00000486  00000-0  48501-4 0  9994,2 55413  70.0002 307.7638 0002615 263.0211  97.0651 14.98328351 50414,6950.198,96.107,573.88,570.246,0.0
55413.0,STARLINK-5060,PAYLOAD,2023-12-28 06:42:39,14.9833003,0.0002582,70.0005,307.4269,261.7031,98.3835,7.7034e-05,8.26e-06,0.0,0 STARLINK-5060,1 55413U 23014Y   23362.27962231  .00000826  00000-0  77034-4 0  9997,2 55413  70.0005 307.4269 0002582 261.7031  98.3835 14.98330030 51373,6950.193,96.107,573.852,570.263,0.0
55413.0,STARLINK-5060,PAYLOAD,2023-12-28 22:44:00,14.98329719,0.0002604,70.0002,305.7438,265.2264,94.8598,5.1323e-06,-3.2e-07,0.0,0 STARLINK-5060,1 55413U 23014Y   23362.94722321 -.00000032  00000-0  51323-5 0  9999,2 55413  70.0002 305.7438 0002604 265.2264  94.8598 14.98329719 51471,6950.194,96.107,573.869,570.249,0.0
55413.0,STARLINK-5060,PAYLOAD,2023-12-29 03:32:24,14.98331143,0.0002564,70.0003,305.2394,258.961,101.126,2.2235e-05,1.72e-06,0.0,0 STARLINK-5060,1 55413U 23014Y   23363.14750145  .00000172  00000-0  22235-4 0  9990,2 55413  70.0003 305.2394 0002564 258.9610 101.1260 14.98331143 50568,6950.189,96.107,573.836,570.272,0.0
55413.0,STARLINK-5060,PAYLOAD,2023-12-29 06:44:40,14.98332386,0.0002572,70.0001,304.9018,264.3586,95.7279,3.9301e-05,3.76e-06,0.0,0 STARLINK-5060,1 55413U 23014Y   23363.28102058  .00000376  00000-0  39301-4 0  9997,2 55413  70.0001 304.9018 0002572 264.3586  95.7279 14.98332386 51522,6950.186,96.107,573.838,570.263,0.0
55413.0,STARLINK-5060,PAYLOAD,2023-12-29 22:46:00,14.98330422,0.000259,70.0002,303.2187,258.3678,101.719,4.2047e-05,4.09e-06,0.0,0 STARLINK-5060,1 55413U 23014Y   23363.94862008  .00000409  00000-0  42047-4 0  9996,2 55413  70.0002 303.2187 0002590 258.3678 101.7190 14.98330422 51627,6950.192,96.107,573.857,570.256,0.0
55413.0,STARLINK-5060,PAYLOAD,2023-12-30 03:34:24,14.98331487,0.0002509,70.0,302.7136,254.062,106.0262,5.1185e-05,5.18e-06,0.0,0 STARLINK-5060,1 55413U 23014Y   23364.14889898  .00000518  00000-0  51185-4 0  9999,2 55413  70.0000 302.7136 0002509 254.0620 106.0262 14.98331487 50712,6950.188,96.107,573.797,570.309,0.0
55413.0,STARLINK-5060,PAYLOAD,2023-12-30 06:46:40,14.983332,0.000264,70.0001,302.3767,261.6098,98.4762,7.1345e-05,7.58e-06,0.0,0 STARLINK-5060,1 55413U 23014Y   23364.28241744  .00000758  00000-0  71345-4 0  9992,2 55413  70.0001 302.3767 0002640 261.6098  98.4762 14.98333200 51678,6950.183,96.107,573.883,570.213,0.0
55413.0,STARLINK-5060,PAYLOAD,2023-12-30 22:48:02,14.98325131,0.0002464,70.0001,300.6934,244.9502,115.1402,-3.5235e-05,-5.13e-06,0.0,0 STARLINK-5060,1 55413U 23014Y   23364.95002481 -.00000513  00000-0 -35235-4 0  9998,2 55413  70.0001 300.6934 0002464 244.9502 115.1402 14.98325131 51776,6950.208,96.107,573.785,570.36,0.0
55413.0,STARLINK-5060,PAYLOAD,2023-12-31 03:36:26,14.98321247,0.0002622,70.0004,300.1886,256.7303,103.3564,-2.2268e-05,-3.59e-06,0.0,0 STARLINK-5060,1 55413U 23014Y   23365.15030776 -.00000359  00000-0 -22268-4 0  9999,2 55413  70.0004 300.1886 0002622 256.7303 103.3564 14.98321247 50867,6950.22,96.108,573.907,570.263,0.0
55413.0,STARLINK-5060,PAYLOAD,2023-12-31 21:13:54,14.98330921,0.0002917,69.9993,298.3361,266.2405,93.8421,-1.7347e-05,-3e-06,0.0,0 STARLINK-5060,1 55413U 23014Y   23365.88466243 -.00000300  00000-0 -17347-4 0  9999,2 55413  69.9993 298.3361 0002917 266.2405  93.8421 14.98330921 51914,6950.19,96.107,574.082,570.028,0.0
55413.0,STARLINK-5060,PAYLOAD,2024-01-01 03:38:26,14.98333585,0.0002818,69.9994,297.6625,265.2728,94.8109,3.2168e-05,2.91e-06,0.0,0 STARLINK-5060,1 55413U 23014Y   24001.15169911  .00000291  00000-0  32168-4 0  9994,2 55413  69.9994 297.6625 0002818 265.2728  94.8109 14.98333585 51011,6950.182,96.107,574.005,570.088,0.0
55413.0,STARLINK-5060,PAYLOAD,2024-01-01 05:14:34,14.98334228,0.0002787,69.9996,297.4942,264.846,95.2381,4.437e-05,4.37e-06,0.0,0 STARLINK-5060,1 55413U 23014Y   24001.21845840  .00000437  00000-0  44370-4 0  9993,2 55413  69.9996 297.4942 0002787 264.8460  95.2381 14.98334228 51962,6950.18,96.107,573.982,570.108,0.0
55413.0,STARLINK-5060,PAYLOAD,2024-01-01 22:52:03,14.98329218,0.0002874,69.9995,295.6429,267.4176,92.6654,7.9548e-05,8.56e-06,0.0,0 STARLINK-5060,1 55413U 23014Y   24001.95281986  .00000856  00000-0  79548-4 0  9999,2 55413  69.9995 295.6429 0002874 267.4176  92.6654 14.98329218 52071,6950.195,96.107,574.058,570.063,0.0
55413.0,STARLINK-5060,PAYLOAD,2024-01-02 03:40:27,14.98333124,0.0002798,69.9996,295.1385,265.9009,94.183,0.00012295,1.374e-05,0.0,0 STARLINK-5060,1 55413U 23014Y   24002.15309607  .00001374  00000-0  12295-3 0  9994,2 55413  69.9996 295.1385 0002798 265.9009  94.1830 14.98333124 51164,6950.183,96.107,573.993,570.104,0.0
55413.0,STARLINK-5060,PAYLOAD,2024-01-02 05:16:35,14.98334946,0.0002846,69.9995,294.9698,269.3258,90.7575,0.00014099,1.59e-05,0.0,0 STARLINK-5060,1 55413U 23014Y   24002.21985455  .00001590  00000-0  14099-3 0  9996,2 55413  69.9995 294.9698 0002846 269.3258  90.7575 14.98334946 52112,6950.178,96.107,574.021,570.065,0.0
55413.0,STARLINK-5060,PAYLOAD,2024-01-02 21:17:56,14.9833328,0.0002713,69.9997,293.2872,269.911,90.1738,1.8019e-05,1.22e-06,0.0,0 STARLINK-5060,1 55413U 23014Y   24002.88745743  .00000122  00000-0  18019-4 0  9990,2 55413  69.9997 293.2872 0002713 269.9110  90.1738 14.98333280 52212,6950.183,96.107,573.933,570.162,0.0
55413.0,STARLINK-5060,PAYLOAD,2024-01-03 03:42:28,14.98319559,0.0002633,70.0,292.6137,271.7893,88.2964,0.00025807,2.987e-05,0.0,0 STARLINK-5060,1 55413U 23014Y   24003.15449956  .00002987  00000-0  25807-3 0  9991,2 55413  70.0000 292.6137 0002633 271.7893  88.2964 14.98319559 51319,6950.225,96.108,573.92,570.26,0.0
55413.0,STARLINK-5060,PAYLOAD,2024-01-03 05:18:36,14.9831376,0.0002559,70.0,292.4456,269.9281,90.1585,0.00039778,4.654e-05,0.0,0 STARLINK-5060,1 55413U 23014Y   24003.22126008  .00004654  00000-0  39778-3 0  9994,2 55413  70.0000 292.4456 0002559 269.9281  90.1585 14.98313760 52262,6950.243,96.108,573.887,570.33,0.0
